[{"OBJECT_NAME":"STARLINK-4676","OBJECT_ID":"2022-104L","EPOCH":"2026-03-09T17:21:41.748768","MEAN_MOTION":15.08834109,"ECCENTRICITY":0.00012692,"INCLINATION":53.2171,"RA_OF_ASC_NODE":243.7109,"ARG_OF_PERICENTER":96.3117,"MEAN_ANOMALY":263.802,"EPHEMERIS_TYPE":0,"CLASSIFICATION_TYPE":"U","NORAD_CAT_ID":53598,"ELEMENT_SET_NO":999,"REV_AT_EPOCH":19562,"BSTAR":1.301145e-5,"MEAN_MOTION_DOT":-8.1e-7,"MEAN_MOTION_DDOT":0},{"OBJECT_NAME":"FENGYUN 1C DEB","OBJECT_ID":"1999-025EMJ","EPOCH":"2026-03-09T03:39:09.279936","MEAN_MOTION":15.01174269,"ECCENTRICITY":0.00472088,"INCLINATION":98.7318,"RA_OF_ASC_NODE":38.98,"ARG_OF_PERICENTER":180.721,"MEAN_ANOMALY":242.109,"EPHEMERIS_TYPE":0,"CLASSIFICATION_TYPE":"U","NORAD_CAT_ID":37717,"ELEMENT_SET_NO":999,"REV_AT_EPOCH":90691,"BSTAR":0.0034859906,"MEAN_MOTION_DOT":0.00045969,"MEAN_MOTION_DDOT":0}]
